{
    "links": {
        "self": "http://www.neowsapp.com/rest/v1/neo/3655874?api_key=iIulBulltgU6a56xZRHN4H3l9WmuAYTsLGpBGhQ2"
    },
    "id": "3655874",
    "neo_reference_id": "3655874",
    "name": "(2014 AB33)",
    "designation": "2014 AB33",
    "nasa_jpl_url": "http://ssd.jpl.nasa.gov/sbdb.cgi?sstr=3655874",
    "absolute_magnitude_h": 24.7,
    "estimated_diameter": {
        "kilometers": {
            "estimated_diameter_min": 0.0305179233,
            "estimated_diameter_max": 0.0682401509
        },
        "meters": {
            "estimated_diameter_min": 30.5179232594,
            "estimated_diameter_max": 68.2401509401
        },
        "miles": {
            "estimated_diameter_min": 0.0189629525,
            "estimated_diameter_max": 0.0424024508
        },
        "feet": {
            "estimated_diameter_min": 100.1244233463,
            "estimated_diameter_max": 223.8850168104
        }
    },
    "is_potentially_hazardous_asteroid": false,
    "close_approach_data": [
        {
            "close_approach_date": "2013-12-28",
            "close_approach_date_full": "2013-Dec-28 19:51",
            "epoch_date_close_approach": 1388260260000,
            "relative_velocity": {
                "kilometers_per_second": "8.3196974139",
                "kilometers_per_hour": "29950.910690114",
                "miles_per_hour": "18610.3311451989"
            },
            "miss_distance": {
                "astronomical": "0.0567080739",
                "lunar": "22.0594407471",
                "kilometers": "8483407.067242593",
                "miles": "5271344.7160820634"
            },
            "orbiting_body": "Earth"
        },
        {
            "close_approach_date": "2090-11-17",
            "close_approach_date_full": "2090-Nov-17 04:22",
            "epoch_date_close_approach": 3814575720000,
            "relative_velocity": {
                "kilometers_per_second": "8.7407205974",
                "kilometers_per_hour": "31466.5941508134",
                "miles_per_hour": "19552.1179044318"
            },
            "miss_distance": {
                "astronomical": "1.7560542881",
                "lunar": "683.1051180709",
                "kilometers": "262701981.104126347",
                "miles": "163235441.7300917086"
            },
            "orbiting_body": "Juptr"
        }
    ],
    "orbital_data": {
        "orbit_id": "9",
        "orbit_determination_date": "2017-04-06 08:42:56",
        "first_observation_date": "2014-01-09",
        "last_observation_date": "2014-01-21",
        "data_arc_in_days": 12,
        "observations_used": 38,
        "orbit_uncertainty": "8",
        "minimum_orbit_intersection": ".0475853",
        "jupiter_tisserand_invariant": "2.987",
        "epoch_osculation": "2456669.5",
        "eccentricity": ".6358263473935976",
        "semi_major_axis": "2.803794599282392",
        "inclination": "3.362396062545965",
        "ascending_node_longitude": "115.9118135504904",
        "orbital_period": "1714.816758688732",
        "perihelion_distance": "1.021068120378773",
        "perihelion_argument": "326.8221898214034",
        "aphelion_distance": "4.586521078186011",
        "perihelion_time": "2456644.610693610212",
        "mean_anomaly": "5.225135720725772",
        "mean_motion": ".2099349672062227",
        "equinox": "J2000",
        "orbit_class": {
            "orbit_class_type": "AMO",
            "orbit_class_description": "Near-Earth asteroid orbits similar to that of 1221 Amor",
            "orbit_class_range": "1.017 AU < q (perihelion) < 1.3 AU"
        }
    },
    "is_sentry_object": false
}